COSMOS 1933             
1 18958U 88020A   26034.17914087  .00004710  00000+0  23237-3 0  9992
2 18958  82.5131 285.0533 0003636 345.9551  14.1581 15.17676790 44994
SL-3 R/B                
1 19046U 88032B   26034.22968480  .00007608  00000+0  35892-3 0  9995
2 19046  97.5140  17.6285 0026187 358.6019   1.5138 15.19445762 46870
SL-16 R/B               
1 19120U 88039B   26034.03077496  .00000095  00000+0  67502-4 0  9999
2 19120  71.0151 141.8356 0020670  27.7117 332.5105 14.19611068953461
COSMOS 1953             
1 19210U 88050A   26033.85576339  .00011496  00000+0  42169-3 0  9999
2 19210  82.5080 193.2553 0010369 245.0620 114.9542 15.27793104 32464
SL-8 R/B                
1 19257U 88053B   26033.91046685  .00000242  00000+0  86887-4 0  9999
2 19257  74.0475 176.5663 0020114   2.6670 144.6394 14.38893890971591
COSMOS 1975             
1 19573U 88093A   26034.27329899  .00011214  00000+0  41567-3 0  9991
2 19573  82.5227 152.2058 0010351 293.9292  66.0862 15.27445175 14152
SL-14 R/B               
1 19574U 88093B   26034.17808212  .00000457  00000+0  49734-4 0  9994
2 19574  82.5284  74.4508 0021522 148.7221 275.2571 14.85617424995916
SL-16 R/B               
1 19650U 88102B   26033.51676638 -.00000173  00000+0 -63427-4 0  9994
2 19650  70.9971 225.5007 0012174  59.9348 300.2981 14.16146001921919
INTERCOSMOS 24          
1 20261U 89080A   26034.25151333  .00000537  00000+0  15345-3 0  9999
2 20261  82.6072 126.8168 1188360  12.7780 350.0813 12.59510732662461
SL-14 R/B               
1 20262U 89080C   26033.82843046  .00000320  00000+0  97167-4 0  9994
2 20262  82.5936 195.5671 1229413 264.4797  81.5190 12.50452596655797
DELTA 1 R/B             
1 20323U 89089B   26034.20134028  .00000443  00000+0  11844-3 0  9990
2 20323  97.0729 247.1195 0067859 230.9945 128.5198 14.50632414890733
ARIANE 40 R/B           
1 20443U 90005H   26034.13720695  .00000296  00000+0  10763-3 0  9991
2 20443  98.3155  95.8150 0009135 313.1564  46.8861 14.39846163887837
