CCSDS_OMM_VERS = 2.0
CREATION_DATE  = 
ORIGINATOR     = 

OBJECT_NAME    = COSMOS 1933
OBJECT_ID      = 1988-020A
CENTER_NAME    = EARTH
REF_FRAME      = TEME
TIME_SYSTEM    = UTC
MEAN_ELEMENT_THEORY = SGP/SGP4

EPOCH          = 2026-02-03T04:17:57.771168
MEAN_MOTION    = 15.17676790
ECCENTRICITY   = .00036362
INCLINATION    = 82.5131
RA_OF_ASC_NODE = 285.0533
ARG_OF_PERICENTER = 345.9551
MEAN_ANOMALY   = 14.1581

EPHEMERIS_TYPE = 0
CLASSIFICATION_TYPE = U
NORAD_CAT_ID   = 18958
ELEMENT_SET_NO = 999
REV_AT_EPOCH   = 4499
BSTAR          = .23236862E-3
MEAN_MOTION_DOT = .471E-4
MEAN_MOTION_DDOT = 0

CCSDS_OMM_VERS = 2.0
CREATION_DATE  = 
ORIGINATOR     = 

OBJECT_NAME    = SL-3 R/B
OBJECT_ID      = 1988-032B
CENTER_NAME    = EARTH
REF_FRAME      = TEME
TIME_SYSTEM    = UTC
MEAN_ELEMENT_THEORY = SGP/SGP4

EPOCH          = 2026-02-03T05:30:44.766720
MEAN_MOTION    = 15.19445762
ECCENTRICITY   = .00261879
INCLINATION    = 97.5140
RA_OF_ASC_NODE = 17.6285
ARG_OF_PERICENTER = 358.6019
MEAN_ANOMALY   = 1.5138

EPHEMERIS_TYPE = 0
CLASSIFICATION_TYPE = U
NORAD_CAT_ID   = 19046
ELEMENT_SET_NO = 999
REV_AT_EPOCH   = 4687
BSTAR          = .3589219E-3
MEAN_MOTION_DOT = .7608E-4
MEAN_MOTION_DDOT = 0

CCSDS_OMM_VERS = 2.0
CREATION_DATE  = 
ORIGINATOR     = 

OBJECT_NAME    = SL-16 R/B
OBJECT_ID      = 1988-039B
CENTER_NAME    = EARTH
REF_FRAME      = TEME
TIME_SYSTEM    = UTC
MEAN_ELEMENT_THEORY = SGP/SGP4

EPOCH          = 2026-02-03T00:44:18.956544
MEAN_MOTION    = 14.19611068
ECCENTRICITY   = .00206707
INCLINATION    = 71.0151
RA_OF_ASC_NODE = 141.8356
ARG_OF_PERICENTER = 27.7117
MEAN_ANOMALY   = 332.5105

EPHEMERIS_TYPE = 0
CLASSIFICATION_TYPE = U
NORAD_CAT_ID   = 19120
ELEMENT_SET_NO = 999
REV_AT_EPOCH   = 95346
BSTAR          = .67501653E-4
MEAN_MOTION_DOT = .95E-6
MEAN_MOTION_DDOT = 0

CCSDS_OMM_VERS = 2.0
CREATION_DATE  = 
ORIGINATOR     = 

OBJECT_NAME    = COSMOS 1953
OBJECT_ID      = 1988-050A
CENTER_NAME    = EARTH
REF_FRAME      = TEME
TIME_SYSTEM    = UTC
MEAN_ELEMENT_THEORY = SGP/SGP4

EPOCH          = 2026-02-02T20:32:17.956896
MEAN_MOTION    = 15.27793104
ECCENTRICITY   = .00103691
INCLINATION    = 82.5080
RA_OF_ASC_NODE = 193.2553
ARG_OF_PERICENTER = 245.0620
MEAN_ANOMALY   = 114.9542

EPHEMERIS_TYPE = 0
CLASSIFICATION_TYPE = U
NORAD_CAT_ID   = 19210
ELEMENT_SET_NO = 999
REV_AT_EPOCH   = 3246
BSTAR          = .42168905E-3
MEAN_MOTION_DOT = .11496E-3
MEAN_MOTION_DDOT = 0

CCSDS_OMM_VERS = 2.0
CREATION_DATE  = 
ORIGINATOR     = 

OBJECT_NAME    = SL-8 R/B
OBJECT_ID      = 1988-053B
CENTER_NAME    = EARTH
REF_FRAME      = TEME
TIME_SYSTEM    = UTC
MEAN_ELEMENT_THEORY = SGP/SGP4

EPOCH          = 2026-02-02T21:51:04.335840
MEAN_MOTION    = 14.38893890
ECCENTRICITY   = .00201148
INCLINATION    = 74.0475
RA_OF_ASC_NODE = 176.5663
ARG_OF_PERICENTER = 2.6670
MEAN_ANOMALY   = 144.6394

EPHEMERIS_TYPE = 0
CLASSIFICATION_TYPE = U
NORAD_CAT_ID   = 19257
ELEMENT_SET_NO = 999
REV_AT_EPOCH   = 97159
BSTAR          = .86886658E-4
MEAN_MOTION_DOT = .242E-5
MEAN_MOTION_DDOT = 0

CCSDS_OMM_VERS = 2.0
CREATION_DATE  = 
ORIGINATOR     = 

OBJECT_NAME    = COSMOS 1975
OBJECT_ID      = 1988-093A
CENTER_NAME    = EARTH
REF_FRAME      = TEME
TIME_SYSTEM    = UTC
MEAN_ELEMENT_THEORY = SGP/SGP4

EPOCH          = 2026-02-03T06:33:33.032736
MEAN_MOTION    = 15.27445175
ECCENTRICITY   = .00103516
INCLINATION    = 82.5227
RA_OF_ASC_NODE = 152.2058
ARG_OF_PERICENTER = 293.9292
MEAN_ANOMALY   = 66.0862

EPHEMERIS_TYPE = 0
CLASSIFICATION_TYPE = U
NORAD_CAT_ID   = 19573
ELEMENT_SET_NO = 999
REV_AT_EPOCH   = 1415
BSTAR          = .4156656E-3
MEAN_MOTION_DOT = .11214E-3
MEAN_MOTION_DDOT = 0

CCSDS_OMM_VERS = 2.0
CREATION_DATE  = 
ORIGINATOR     = 

OBJECT_NAME    = SL-14 R/B
OBJECT_ID      = 1988-093B
CENTER_NAME    = EARTH
REF_FRAME      = TEME
TIME_SYSTEM    = UTC
MEAN_ELEMENT_THEORY = SGP/SGP4

EPOCH          = 2026-02-03T04:16:26.295168
MEAN_MOTION    = 14.85617424
ECCENTRICITY   = .0021522
INCLINATION    = 82.5284
RA_OF_ASC_NODE = 74.4508
ARG_OF_PERICENTER = 148.7221
MEAN_ANOMALY   = 275.2571

EPHEMERIS_TYPE = 0
CLASSIFICATION_TYPE = U
NORAD_CAT_ID   = 19574
ELEMENT_SET_NO = 999
REV_AT_EPOCH   = 99591
BSTAR          = .49734446E-4
MEAN_MOTION_DOT = .457E-5
MEAN_MOTION_DDOT = 0

CCSDS_OMM_VERS = 2.0
CREATION_DATE  = 
ORIGINATOR     = 

OBJECT_NAME    = SL-16 R/B
OBJECT_ID      = 1988-102B
CENTER_NAME    = EARTH
REF_FRAME      = TEME
TIME_SYSTEM    = UTC
MEAN_ELEMENT_THEORY = SGP/SGP4

EPOCH          = 2026-02-02T12:24:08.615232
MEAN_MOTION    = 14.16146001
ECCENTRICITY   = .00121742
INCLINATION    = 70.9971
RA_OF_ASC_NODE = 225.5007
ARG_OF_PERICENTER = 59.9348
MEAN_ANOMALY   = 300.2981

EPHEMERIS_TYPE = 0
CLASSIFICATION_TYPE = U
NORAD_CAT_ID   = 19650
ELEMENT_SET_NO = 999
REV_AT_EPOCH   = 92191
BSTAR          = -.63427439E-4
MEAN_MOTION_DOT = -.173E-5
MEAN_MOTION_DDOT = 0

CCSDS_OMM_VERS = 2.0
CREATION_DATE  = 
ORIGINATOR     = 

OBJECT_NAME    = INTERCOSMOS 24
OBJECT_ID      = 1989-080A
CENTER_NAME    = EARTH
REF_FRAME      = TEME
TIME_SYSTEM    = UTC
MEAN_ELEMENT_THEORY = SGP/SGP4

EPOCH          = 2026-02-03T06:02:10.751712
MEAN_MOTION    = 12.59510732
ECCENTRICITY   = .11883601
INCLINATION    = 82.6072
RA_OF_ASC_NODE = 126.8168
ARG_OF_PERICENTER = 12.7780
MEAN_ANOMALY   = 350.0813

EPHEMERIS_TYPE = 0
CLASSIFICATION_TYPE = U
NORAD_CAT_ID   = 20261
ELEMENT_SET_NO = 999
REV_AT_EPOCH   = 66246
BSTAR          = .15344936E-3
MEAN_MOTION_DOT = .537E-5
MEAN_MOTION_DDOT = 0

CCSDS_OMM_VERS = 2.0
CREATION_DATE  = 
ORIGINATOR     = 

OBJECT_NAME    = SL-14 R/B
OBJECT_ID      = 1989-080C
CENTER_NAME    = EARTH
REF_FRAME      = TEME
TIME_SYSTEM    = UTC
MEAN_ELEMENT_THEORY = SGP/SGP4

EPOCH          = 2026-02-02T19:52:56.391744
MEAN_MOTION    = 12.50452596
ECCENTRICITY   = .12294134
INCLINATION    = 82.5936
RA_OF_ASC_NODE = 195.5671
ARG_OF_PERICENTER = 264.4797
MEAN_ANOMALY   = 81.5190

EPHEMERIS_TYPE = 0
CLASSIFICATION_TYPE = U
NORAD_CAT_ID   = 20262
ELEMENT_SET_NO = 999
REV_AT_EPOCH   = 65579
BSTAR          = .97167131E-4
MEAN_MOTION_DOT = .32E-5
MEAN_MOTION_DDOT = 0

CCSDS_OMM_VERS = 2.0
CREATION_DATE  = 
ORIGINATOR     = 

OBJECT_NAME    = DELTA 1 R/B
OBJECT_ID      = 1989-089B
CENTER_NAME    = EARTH
REF_FRAME      = TEME
TIME_SYSTEM    = UTC
MEAN_ELEMENT_THEORY = SGP/SGP4

EPOCH          = 2026-02-03T04:49:55.800192
MEAN_MOTION    = 14.50632414
ECCENTRICITY   = .00678596
INCLINATION    = 97.0729
RA_OF_ASC_NODE = 247.1195
ARG_OF_PERICENTER = 230.9945
MEAN_ANOMALY   = 128.5198

EPHEMERIS_TYPE = 0
CLASSIFICATION_TYPE = U
NORAD_CAT_ID   = 20323
ELEMENT_SET_NO = 999
REV_AT_EPOCH   = 89073
BSTAR          = .11844096E-3
MEAN_MOTION_DOT = .443E-5
MEAN_MOTION_DDOT = 0

CCSDS_OMM_VERS = 2.0
CREATION_DATE  = 
ORIGINATOR     = 

OBJECT_NAME    = ARIANE 40 R/B
OBJECT_ID      = 1990-005H
CENTER_NAME    = EARTH
REF_FRAME      = TEME
TIME_SYSTEM    = UTC
MEAN_ELEMENT_THEORY = SGP/SGP4

EPOCH          = 2026-02-03T03:17:34.680480
MEAN_MOTION    = 14.39846163
ECCENTRICITY   = .00091357
INCLINATION    = 98.3155
RA_OF_ASC_NODE = 95.8150
ARG_OF_PERICENTER = 313.1564
MEAN_ANOMALY   = 46.8861

EPHEMERIS_TYPE = 0
CLASSIFICATION_TYPE = U
NORAD_CAT_ID   = 20443
ELEMENT_SET_NO = 999
REV_AT_EPOCH   = 88783
BSTAR          = .10763391E-3
MEAN_MOTION_DOT = .296E-5
MEAN_MOTION_DDOT = 0

